ONEWEB-0379             
1 49305U 21090AC  24212.83601517  .00000046  00000+0  90721-4 0  9997
2 49305  87.8929  66.2361 0001798  79.5254 280.6078 13.14504105137395
ONEWEB-0380             
1 49306U 21090AD  24212.89151713  .00000070  00000+0  14252-3 0  9993
2 49306  87.9120  81.5266 0001781  81.5548 278.5787 13.19725315135906
ONEWEB-0381             
1 49307U 21090AE  24212.95329291  .00000062  00000+0  12022-3 0  9993
2 49307  87.9182  50.9543 0001910  90.3459 269.7893 13.20774294139249
ONEWEB-0382             
1 49308U 21090AF  24212.94068379  .00000037  00000+0  60246-4 0  9994
2 49308  87.9180  50.9536 0002267  84.3641 275.7751 13.20772489139235
ONEWEB-0383             
1 49309U 21090AG  24212.82967579  .00000197  00000+0  49632-3 0  9994
2 49309  87.8927  66.2248 0001972  78.0960 282.0391 13.14501596137422
ONEWEB-0384             
1 49310U 21090AH  24212.93752678  .00000101  00000+0  21763-3 0  9990
2 49310  87.9183  50.9662 0002355  83.1833 276.9569 13.20772507139241
ONEWEB-0386             
1 49312U 21090AK  24212.95015105  .00000030  00000+0  40728-4 0  9995
2 49312  87.9174  50.9567 0002104  84.4115 275.7258 13.20771996139238
